IRIDIUM 7 [-]           
1 24793U 97020B   23333.76891993  .00000847  00000+0  29081-3 0  9990
2 24793  86.3981  53.7316 0002078  99.5620 260.5811 14.34993996391008
IRIDIUM 5 [-]           
1 24795U 97020D   23334.09346895  .00008021  00000+0  80172-3 0  9995
2 24795  86.3923 342.1404 0126315 353.1826   6.7672 14.85476000401372
IRIDIUM 4 [-]           
1 24796U 97020E   23333.76421937  .00000873  00000+0  29461-3 0  9991
2 24796  86.3977  50.9865 0001924  93.3486 266.7931 14.35902971391336
IRIDIUM 914 [-]         
1 24836U 97030A   23333.77316062  .00001127  00000+0  35371-3 0  9990
2 24836  86.3949  61.2378 0000458  42.1685 317.9549 14.39725729387841
IRIDIUM 16 [-]          
1 24841U 97030F   23333.80288448  .00001130  00000+0  37024-3 0  9997
2 24841  86.4033  82.6953 0004025 108.0835 252.0801 14.37611481386005
IRIDIUM 911 [-]         
1 24842U 97030G   23334.36631003  .00001713  00000+0  47347-3 0  9995
2 24842  86.4458  81.7517 0014590 171.7147 188.4299 14.46163420393392
IRIDIUM 17 [-]          
1 24870U 97034B   23334.82950937  .00001294  00000+0  43293-3 0  9991
2 24870  86.3944 111.9285 0003563  76.9003 283.2591 14.36704463382524
IRIDIUM 920 [-]         
1 24871U 97034C   23333.82466456  .00001213  00000+0  37562-3 0  9992
2 24871  86.3967  92.8912 0012834 138.8049 221.4121 14.40425533385421
